CCSDS_OMM_VERS = 2.0
CREATION_DATE  = 
ORIGINATOR     = 

OBJECT_NAME    = UNKNOWN
OBJECT_ID      = 
CENTER_NAME    = EARTH
REF_FRAME      = TEME
TIME_SYSTEM    = UTC
MEAN_ELEMENT_THEORY = SGP/SGP4

EPOCH          = 2025-11-12T02:07:55.129728
MEAN_MOTION    = 13.74497763
ECCENTRICITY   = .0031412
INCLINATION    = 82.9442
RA_OF_ASC_NODE = 256.7759
ARG_OF_PERICENTER = 89.0760
MEAN_ANOMALY   = 271.3995

EPHEMERIS_TYPE = 0
CLASSIFICATION_TYPE = U
NORAD_CAT_ID   = 87730
ELEMENT_SET_NO = 999
REV_AT_EPOCH   = 58112
BSTAR          = .12968E-3
MEAN_MOTION_DOT = .139E-5
MEAN_MOTION_DDOT = 0

CCSDS_OMM_VERS = 2.0
CREATION_DATE  = 
ORIGINATOR     = 

OBJECT_NAME    = UNKNOWN
OBJECT_ID      = 
CENTER_NAME    = EARTH
REF_FRAME      = TEME
TIME_SYSTEM    = UTC
MEAN_ELEMENT_THEORY = SGP/SGP4

EPOCH          = 2025-11-09T14:27:38.949696
MEAN_MOTION    = 13.72332957
ECCENTRICITY   = .0132391
INCLINATION    = 99.3770
RA_OF_ASC_NODE = 186.1152
ARG_OF_PERICENTER = 276.2484
MEAN_ANOMALY   = 82.3598

EPHEMERIS_TYPE = 0
CLASSIFICATION_TYPE = U
NORAD_CAT_ID   = 87737
ELEMENT_SET_NO = 999
REV_AT_EPOCH   = 59931
BSTAR          = .12433E-3
MEAN_MOTION_DOT = .76E-6
MEAN_MOTION_DDOT = 0

CCSDS_OMM_VERS = 2.0
CREATION_DATE  = 
ORIGINATOR     = 

OBJECT_NAME    = UNKNOWN
OBJECT_ID      = 
CENTER_NAME    = EARTH
REF_FRAME      = TEME
TIME_SYSTEM    = UTC
MEAN_ELEMENT_THEORY = SGP/SGP4

EPOCH          = 2025-11-12T05:25:01.727616
MEAN_MOTION    = 14.34107174
ECCENTRICITY   = .0361781
INCLINATION    = 65.6731
RA_OF_ASC_NODE = 246.4117
ARG_OF_PERICENTER = 92.8901
MEAN_ANOMALY   = 51.5212

EPHEMERIS_TYPE = 0
CLASSIFICATION_TYPE = U
NORAD_CAT_ID   = 87764
ELEMENT_SET_NO = 999
REV_AT_EPOCH   = 61474
BSTAR          = .42517E-2
MEAN_MOTION_DOT = .25034E-3
MEAN_MOTION_DDOT = 0

CCSDS_OMM_VERS = 2.0
CREATION_DATE  = 
ORIGINATOR     = 

OBJECT_NAME    = UNKNOWN
OBJECT_ID      = 
CENTER_NAME    = EARTH
REF_FRAME      = TEME
TIME_SYSTEM    = UTC
MEAN_ELEMENT_THEORY = SGP/SGP4

EPOCH          = 2025-11-10T00:15:13.346496
MEAN_MOTION    = 13.19504038
ECCENTRICITY   = .0119749
INCLINATION    = 100.7454
RA_OF_ASC_NODE = 149.4638
ARG_OF_PERICENTER = 76.4149
MEAN_ANOMALY   = 285.0270

EPHEMERIS_TYPE = 0
CLASSIFICATION_TYPE = U
NORAD_CAT_ID   = 87771
ELEMENT_SET_NO = 999
REV_AT_EPOCH   = 53077
BSTAR          = .36279E-3
MEAN_MOTION_DOT = .104E-5
MEAN_MOTION_DDOT = 0

CCSDS_OMM_VERS = 2.0
CREATION_DATE  = 
ORIGINATOR     = 

OBJECT_NAME    = UNKNOWN
OBJECT_ID      = 
CENTER_NAME    = EARTH
REF_FRAME      = TEME
TIME_SYSTEM    = UTC
MEAN_ELEMENT_THEORY = SGP/SGP4

EPOCH          = 2025-11-12T09:00:47.786112
MEAN_MOTION    = 13.00207360
ECCENTRICITY   = .0067169
INCLINATION    = 102.3290
RA_OF_ASC_NODE = 183.9897
ARG_OF_PERICENTER = 297.9260
MEAN_ANOMALY   = 61.5047

EPHEMERIS_TYPE = 0
CLASSIFICATION_TYPE = U
NORAD_CAT_ID   = 87782
ELEMENT_SET_NO = 999
REV_AT_EPOCH   = 56404
BSTAR          = .17272E-1
MEAN_MOTION_DOT = .5218E-4
MEAN_MOTION_DDOT = 0

CCSDS_OMM_VERS = 2.0
CREATION_DATE  = 
ORIGINATOR     = 

OBJECT_NAME    = UNKNOWN
OBJECT_ID      = 
CENTER_NAME    = EARTH
REF_FRAME      = TEME
TIME_SYSTEM    = UTC
MEAN_ELEMENT_THEORY = SGP/SGP4

EPOCH          = 2025-11-08T13:33:48.014784
MEAN_MOTION    = 13.16383909
ECCENTRICITY   = .023444
INCLINATION    = 99.6668
RA_OF_ASC_NODE = 69.5949
ARG_OF_PERICENTER = 86.6324
MEAN_ANOMALY   = 276.1578

EPHEMERIS_TYPE = 0
CLASSIFICATION_TYPE = U
NORAD_CAT_ID   = 87843
ELEMENT_SET_NO = 999
REV_AT_EPOCH   = 55966
BSTAR          = .58341E-2
MEAN_MOTION_DOT = .2523E-4
MEAN_MOTION_DDOT = 0

CCSDS_OMM_VERS = 2.0
CREATION_DATE  = 
ORIGINATOR     = 

OBJECT_NAME    = UNKNOWN
OBJECT_ID      = 
CENTER_NAME    = EARTH
REF_FRAME      = TEME
TIME_SYSTEM    = UTC
MEAN_ELEMENT_THEORY = SGP/SGP4

EPOCH          = 2025-11-10T16:56:01.833792
MEAN_MOTION    = 12.88778831
ECCENTRICITY   = .0577545
INCLINATION    = 98.8494
RA_OF_ASC_NODE = 278.4852
ARG_OF_PERICENTER = 327.6916
MEAN_ANOMALY   = 29.0002

EPHEMERIS_TYPE = 0
CLASSIFICATION_TYPE = U
NORAD_CAT_ID   = 87845
ELEMENT_SET_NO = 999
REV_AT_EPOCH   = 56108
BSTAR          = .53269E-2
MEAN_MOTION_DOT = .2827E-4
MEAN_MOTION_DDOT = 0

CCSDS_OMM_VERS = 2.0
CREATION_DATE  = 
ORIGINATOR     = 

OBJECT_NAME    = UNKNOWN
OBJECT_ID      = 
CENTER_NAME    = EARTH
REF_FRAME      = TEME
TIME_SYSTEM    = UTC
MEAN_ELEMENT_THEORY = SGP/SGP4

EPOCH          = 2025-10-26T13:00:36.668448
MEAN_MOTION    = 14.40209006
ECCENTRICITY   = .0035552
INCLINATION    = 99.1567
RA_OF_ASC_NODE = 55.7518
ARG_OF_PERICENTER = 46.7423
MEAN_ANOMALY   = 313.6721

EPHEMERIS_TYPE = 0
CLASSIFICATION_TYPE = U
NORAD_CAT_ID   = 87878
ELEMENT_SET_NO = 999
REV_AT_EPOCH   = 60450
BSTAR          = .1367E-2
MEAN_MOTION_DOT = .4309E-4
MEAN_MOTION_DDOT = 0

CCSDS_OMM_VERS = 2.0
CREATION_DATE  = 
ORIGINATOR     = 

OBJECT_NAME    = UNKNOWN
OBJECT_ID      = 
CENTER_NAME    = EARTH
REF_FRAME      = TEME
TIME_SYSTEM    = UTC
MEAN_ELEMENT_THEORY = SGP/SGP4

EPOCH          = 2025-11-11T13:08:38.223168
MEAN_MOTION    = 14.05952431
ECCENTRICITY   = .0154642
INCLINATION    = 98.7346
RA_OF_ASC_NODE = 60.4885
ARG_OF_PERICENTER = 155.7317
MEAN_ANOMALY   = 205.1236

EPHEMERIS_TYPE = 0
CLASSIFICATION_TYPE = U
NORAD_CAT_ID   = 87884
ELEMENT_SET_NO = 999
REV_AT_EPOCH   = 61398
BSTAR          = .2377E-3
MEAN_MOTION_DOT = .392E-5
MEAN_MOTION_DDOT = 0

CCSDS_OMM_VERS = 2.0
CREATION_DATE  = 
ORIGINATOR     = 

OBJECT_NAME    = UNKNOWN
OBJECT_ID      = 
CENTER_NAME    = EARTH
REF_FRAME      = TEME
TIME_SYSTEM    = UTC
MEAN_ELEMENT_THEORY = SGP/SGP4

EPOCH          = 2025-10-31T20:44:07.492704
MEAN_MOTION    = 13.73099371
ECCENTRICITY   = .0031579
INCLINATION    = 82.9364
RA_OF_ASC_NODE = 330.6631
ARG_OF_PERICENTER = 150.2212
MEAN_ANOMALY   = 28.1460

EPHEMERIS_TYPE = 0
CLASSIFICATION_TYPE = U
NORAD_CAT_ID   = 87934
ELEMENT_SET_NO = 999
REV_AT_EPOCH   = 59856
BSTAR          = .85338E-4
MEAN_MOTION_DOT = .94E-6
MEAN_MOTION_DDOT = 0

CCSDS_OMM_VERS = 2.0
CREATION_DATE  = 
ORIGINATOR     = 

OBJECT_NAME    = UNKNOWN
OBJECT_ID      = 
CENTER_NAME    = EARTH
REF_FRAME      = TEME
TIME_SYSTEM    = UTC
MEAN_ELEMENT_THEORY = SGP/SGP4

EPOCH          = 2025-11-09T13:36:23.539968
MEAN_MOTION    = 12.34803735
ECCENTRICITY   = .0884807
INCLINATION    = 28.6213
RA_OF_ASC_NODE = 39.3508
ARG_OF_PERICENTER = 172.3173
MEAN_ANOMALY   = 189.1934

EPHEMERIS_TYPE = 0
CLASSIFICATION_TYPE = U
NORAD_CAT_ID   = 87991
ELEMENT_SET_NO = 999
REV_AT_EPOCH   = 51889
BSTAR          = .22182E-2
MEAN_MOTION_DOT = .1143E-4
MEAN_MOTION_DDOT = 0

CCSDS_OMM_VERS = 2.0
CREATION_DATE  = 
ORIGINATOR     = 

OBJECT_NAME    = UNKNOWN
OBJECT_ID      = 
CENTER_NAME    = EARTH
REF_FRAME      = TEME
TIME_SYSTEM    = UTC
MEAN_ELEMENT_THEORY = SGP/SGP4

EPOCH          = 2025-10-17T05:28:06.213216
MEAN_MOTION    = 14.36134798
ECCENTRICITY   = .0015417
INCLINATION    = 74.0437
RA_OF_ASC_NODE = 118.2873
ARG_OF_PERICENTER = 192.1857
MEAN_ANOMALY   = 167.8926

EPHEMERIS_TYPE = 0
CLASSIFICATION_TYPE = U
NORAD_CAT_ID   = 89003
ELEMENT_SET_NO = 999
REV_AT_EPOCH   = 62343
BSTAR          = .16019E-3
MEAN_MOTION_DOT = .441E-5
MEAN_MOTION_DDOT = 0

